ONEWEB-0574             
1 56063U 23043T   23310.41709510  .00000133  00000+0  29016-3 0  9995
2 56063  87.9234  73.8511 0001536 102.2958 257.8348 13.21830035 32279
ONEWEB-0575             
1 56064U 23043U   23310.91667824  .00000015  00000+0  00000+0 0  9999
2 56064  87.6501  58.8938 0001781  62.4616 105.0644 13.70809369 34365
ONEWEB-0576             
1 56065U 23043V   23310.91667824  .00000015  00000+0  00000+0 0  9990
2 56065  87.6615  58.8782 0002563  47.9903  36.3038 13.68929953 34356
ONEWEB-0577             
1 56066U 23043W   23310.91667824  .00000015  00000+0  00000+0 0  9991
2 56066  87.6406  58.9185 0004421  81.5749  26.3755 13.72103455 34373
ONEWEB-0578             
1 56067U 23043X   23310.63158137  .00000118  00000+0  25357-3 0  9993
2 56067  87.9237  73.8031 0001715 103.1681 256.9645 13.21826206 32269
ONEWEB-0579             
1 56068U 23043Y   23310.62211840  .00000135  00000+0  29643-3 0  9995
2 56068  87.9232  73.8069 0001506  80.2015 279.9289 13.21827900 32272
ONEWEB-0581             
1 56069U 23043Z   23310.91667824  .00000015  00000+0  00000+0 0  9994
2 56069  87.6713  58.9449 0002582  25.9502 336.3374 13.68662226 34355
ONEWEB-0609             
1 56070U 23043AA  23310.42485465  .00000037  00000+0  63415-4 0  9999
2 56070  87.8950  89.1028 0001427  98.1963 261.9330 13.15549898 31039
